IRIDIUM 64 [+]          
1 25287U 98021C   13082.24901182  .00000314  00000-0  10497-3 0  1832
2 25287  86.3997 150.5627 0002274 122.9904 237.1510 14.34220261783277
IRIDIUM 65 [+]          
1 25288U 98021D   13083.17308981  .00000072  00000-0  18736-4 0  2257
2 25288  86.3992 150.1088 0002231 106.5972 308.9457 14.34213446783427
IRIDIUM 66 [+]          
1 25289U 98021E   13082.49647572  .00000073  00000-0  18925-4 0  1670
2 25289  86.3994 150.3083 0002421 109.5522  22.0239 14.34212718783324
IRIDIUM 67 [+]          
1 25290U 98021F   13082.28070316  .00000149  00000-0  45986-4 0  9955
2 25290  86.3994 150.5110 0002417 112.0199 313.4551 14.34213065783301
IRIDIUM 68 [+]          
1 25291U 98021G   13082.27437953  .00000325  00000-0  10888-3 0  2219
2 25291  86.4000 150.6034 0002522 110.2205 249.9263 14.34220302783273
IRIDIUM 69 [-]          
1 25319U 98026A   13082.34808559  .00000282  00000-0  87364-4 0   277
2 25319  86.4053 176.0070 0000966  79.3463 345.5730 14.37677587780706
IRIDIUM 71 [-]          
1 25320U 98026B   13082.33889941  .00000301  00000-0  92802-4 0  7308
2 25320  86.4036 172.6728 0003281  73.1783 354.5469 14.38199770781064
IRIDIUM 70 [+]          
1 25342U 98032A   13082.24121189  .00000348  00000-0  11734-3 0  2559
2 25342  86.4001 150.7859 0002540 107.8059 310.2764 14.34213644777379
IRIDIUM 72 [+]          
1 25343U 98032B   13082.30028028  .00000326  00000-0  10921-3 0  2356
2 25343  86.3997 150.4748 0002411 109.5067 318.7933 14.34220329777382
IRIDIUM 73 [-]          
1 25344U 98032C   13082.21975723  .00000365  00000-0  93351-4 0  1171
2 25344  86.4435 136.2256 0002697 124.8520 299.9983 14.47813457783619
IRIDIUM 74 [S]          
1 25345U 98032D   13082.23324361  .00000387  00000-0  10986-3 0  2997
2 25345  86.4508 150.7626 0002586 113.1322 303.4629 14.42952420779679
IRIDIUM 75 [+]          
1 25346U 98032E   13082.23457491  .00000318  00000-0  10642-3 0  2598
2 25346  86.3998 150.6988 0002422 110.2533 306.2888 14.34220336777944
IRIDIUM 3 [+]           
1 25431U 98048A   13082.35991234  .00000336  00000-0  11299-3 0  1825
2 25431  86.4028 182.1921 0002383 105.5608 318.2588 14.34216385763907
IRIDIUM 76 [+]          
1 25432U 98048B   13082.37960115  .00000362  00000-0  12224-3 0  1224
2 25432  86.4026 181.9877 0002673 110.4754 316.8715 14.34224845763896
IRIDIUM 82 [+]          
1 25467U 98051A   13082.12656732  .00000307  00000-0  10241-3 0  3572
2 25467  86.3940 308.7197 0001555 106.5856 253.5510 14.34224098764878
IRIDIUM 81 [+]          
1 25468U 98051B   13082.18997946  .00000258  00000-0  85057-4 0  1755
2 25468  86.3948 308.3825 0002101 110.4548 249.6873 14.34225013761100
IRIDIUM 80 [+]          
1 25469U 98051C   13083.16968314  .00000235  00000-0  76833-4 0  1816
2 25469  86.3954 308.1865 0002149 107.6847   5.8255 14.34216650761240
IRIDIUM 77 [+]          
1 25471U 98051E   13082.20623780  .00000263  00000-0  87001-4 0  3551
2 25471  86.3965 308.3169 0002540  90.2814  59.2123 14.34214301766300
IRIDIUM 2 [-]           
1 25527U 98066A   13082.43246394  .00002543  00000-0  18603-3 0  6913
2 25527  85.5617 215.4430 0007246 319.4144 101.1532 15.03129787784330
IRIDIUM 86 [+]          
1 25528U 98066B   13082.48467362  .00000040  00000-0  73764-5 0  4075
2 25528  86.3910 276.3914 0002055  96.8606 263.2824 14.34218852757677
IRIDIUM 84 [+]          
1 25530U 98066D   13082.44661411  .00000070  00000-0  17889-4 0   563
2 25530  86.3911 276.5449 0002144 110.3060 249.8366 14.34219269755303
IRIDIUM 83 [+]          
1 25531U 98066E   13082.47833443  .00000047  00000-0  98870-5 0  2019
2 25531  86.3916 276.5951 0002154 109.8187 250.3241 14.34218997752663
IRIDIUM 20 [+]          
1 25577U 98074A   13082.32853595  .00000338  00000-0  11372-3 0  1014
2 25577  86.4024 181.9532 0002327 112.1016 248.0427 14.34216057746723
IRIDIUM 11 [+]          
1 25578U 98074B   13082.35358859  .00000360  00000-0  12161-3 0  3396
2 25578  86.4024 182.1590 0002195 113.4557 310.4749 14.34216494755690
IRIDIUM 14 [S]          
1 25777U 99032A   13082.28326692  .00000215  00000-0  45068-4 0  3587
2 25777  86.5182 150.5555 0002453 112.5982 312.5443 14.54934163731865
IRIDIUM 21 [+]          
1 25778U 99032B   13082.29380524  .00000062  00000-0  15162-4 0  1774
2 25778  86.3997 150.5653 0003789 114.6852 312.9216 14.34212808726396
IRIDIUM 91 [+]          
1 27372U 02005A   13082.47178729  .00000143  00000-0  43969-4 0  7820
2 27372  86.4015 214.0355 0001577 204.8238 222.3142 14.34212172589931
IRIDIUM 90 [S]          
1 27373U 02005B   13082.48492454  .00000096  00000-0  22576-4 0  7688
2 27373  86.4426 276.5062 0006219 114.8207 245.3641 14.42956735588319
IRIDIUM 94 [S]          
1 27374U 02005C   13082.37299985  .00000335  00000-0  11246-3 0  9477
2 27374  86.4026 182.2571 0006083  90.5888 335.3271 14.34216739594240
IRIDIUM 95 [+]          
1 27375U 02005D   13082.42709281  .00000259  00000-0  85591-4 0  7411
2 27375  86.4012 213.8461 0002409 111.0831 249.0623 14.34221675589218
IRIDIUM 96 [S]          
1 27376U 02005E   13082.46855177  .00000313  00000-0  88004-4 0  9338
2 27376  87.1934 224.4999 0006306  94.0354 266.1568 14.42858556594390
IRIDIUM 97 [+]          
1 27450U 02031A   13082.44320435  .00000043  00000-0  83170-5 0  6429
2 27450  86.3942 245.3751 0001697 188.7613 171.3553 14.34218995568534
IRIDIUM 98 [S]          
1 27451U 02031B   13082.19211892  .00000321  00000-0  89922-4 0  7361
2 27451  86.4432 309.0074 0002173 196.6791 311.7316 14.42954964569126
